start=new Date('2022-05-07T00:00:00.000Z').valueOf();
sats=[{"REV_AT_EPOCH":"365","COUNTRY_CODE":"US","DECAY_DATE":null,"ARG_OF_PERICENTER":"47.5332","PERIAPSIS":"535.011","MEAN_ELEMENT_THEORY":"SGP4","APOAPSIS":"537.178","TIME_SYSTEM":"UTC","OBJECT_ID":"2022-017Q","MEAN_MOTION_DDOT":"0.0000000000000","MEAN_MOTION_DOT":"-0.00718055","NORAD_CAT_ID":"51782","TLE_LINE1":"1 51782U 22017Q   22126.58334491 -.00718055  00000-0 -46894-1 0  9995","BSTAR":"-0.04689400000000","RA_OF_ASC_NODE":"167.9089","LAUNCH_DATE":"2022-02-25","CLASSIFICATION_TYPE":"U","RCS_SIZE":"LARGE","OBJECT_NAME":"STARLINK-3616","EPHEMERIS_TYPE":"0","PERIOD":"95.362","INCLINATION":"53.2173","CENTER_NAME":"EARTH","MEAN_MOTION":"15.10035251","SEMIMAJOR_AXIS":"6914.229","GP_ID":"202864136","ECCENTRICITY":"0.00015670","OBJECT_TYPE":"PAYLOAD","MEAN_ANOMALY":"20.2450","FILE":"3432208","ELEMENT_SET_NO":"999","SITE":"AFWTR","EPOCH":"2022-05-06T14:00:01.000224","TLE_LINE2":"2 51782  53.2173 167.9089 0001567  47.5332  20.2450 15.10035251  3659","REF_FRAME":"TEME"},{"FILE":"3432683","ELEMENT_SET_NO":"999","SITE":"AFWTR","TLE_LINE2":"2 51783  53.2174 158.7014 0001490  41.6896  32.8987 15.40776030 12252","EPOCH":"2022-05-06T22:00:00.999936","REF_FRAME":"TEME","CENTER_NAME":"EARTH","MEAN_MOTION":"15.40776030","SEMIMAJOR_AXIS":"6821.955","GP_ID":"202875541","ECCENTRICITY":"0.00014900","OBJECT_TYPE":"PAYLOAD","MEAN_ANOMALY":"32.8987","BSTAR":"-0.01865100000000","RA_OF_ASC_NODE":"158.7014","LAUNCH_DATE":"2022-02-25","CLASSIFICATION_TYPE":"U","RCS_SIZE":"LARGE","OBJECT_NAME":"STARLINK-3628","EPHEMERIS_TYPE":"0","PERIOD":"93.459","INCLINATION":"53.2174","REV_AT_EPOCH":"1225","COUNTRY_CODE":"US","DECAY_DATE":null,"ARG_OF_PERICENTER":"41.6896","PERIAPSIS":"442.803","MEAN_ELEMENT_THEORY":"SGP4","TIME_SYSTEM":"UTC","APOAPSIS":"444.836","MEAN_MOTION_DOT":"-0.00716690","MEAN_MOTION_DDOT":"0.0000000000000","OBJECT_ID":"2022-017R","NORAD_CAT_ID":"51783","TLE_LINE1":"1 51783U 22017R   22126.91667824 -.00716690  00000-0 -18651-1 0  9995"},{"MEAN_MOTION_DDOT":"0.0000000000000","MEAN_MOTION_DOT":"-0.00722698","NORAD_CAT_ID":"51784","OBJECT_ID":"2022-017S","TLE_LINE1":"1 51784U 22017S   22126.91667824 -.00722698  00000-0 -47717-1 0  9996","MEAN_ELEMENT_THEORY":"SGP4","TIME_SYSTEM":"UTC","APOAPSIS":"538.507","PERIAPSIS":"536.003","ARG_OF_PERICENTER":"38.2721","COUNTRY_CODE":"US","DECAY_DATE":null,"REV_AT_EPOCH":"1215","INCLINATION":"53.2174","EPHEMERIS_TYPE":"0","PERIOD":"95.386","OBJECT_NAME":"STARLINK-3632","RCS_SIZE":"LARGE","CLASSIFICATION_TYPE":"U","RA_OF_ASC_NODE":"166.4081","LAUNCH_DATE":"2022-02-25","BSTAR":"-0.04771700000000","MEAN_ANOMALY":"62.0053","OBJECT_TYPE":"PAYLOAD","GP_ID":"202875543","ECCENTRICITY":"0.00018100","SEMIMAJOR_AXIS":"6915.390","CENTER_NAME":"EARTH","MEAN_MOTION":"15.09655084","REF_FRAME":"TEME","ELEMENT_SET_NO":"999","SITE":"AFWTR","TLE_LINE2":"2 51784  53.2174 166.4081 0001810  38.2721  62.0053 15.09655084 12156","EPOCH":"2022-05-06T22:00:00.999936","FILE":"3432683"},{"EPOCH":"2022-05-06T22:00:00.999936","TLE_LINE2":"2 51785  53.2174 158.7097 0001343  49.2993  31.0403 15.40964976 12302","SITE":"AFWTR","ELEMENT_SET_NO":"999","REF_FRAME":"TEME","FILE":"3432683","OBJECT_TYPE":"PAYLOAD","MEAN_ANOMALY":"31.0403","MEAN_MOTION":"15.40964976","CENTER_NAME":"EARTH","SEMIMAJOR_AXIS":"6821.397","ECCENTRICITY":"0.00013430","GP_ID":"202875636","PERIOD":"93.448","EPHEMERIS_TYPE":"0","INCLINATION":"53.2174","BSTAR":"-0.01853200000000","LAUNCH_DATE":"2022-02-25","RA_OF_ASC_NODE":"158.7097","RCS_SIZE":"LARGE","CLASSIFICATION_TYPE":"U","OBJECT_NAME":"STARLINK-3646","ARG_OF_PERICENTER":"49.2993","PERIAPSIS":"442.346","APOAPSIS":"444.178","TIME_SYSTEM":"UTC","MEAN_ELEMENT_THEORY":"SGP4","TLE_LINE1":"1 51785U 22017T   22126.91667824 -.00716607  00000-0 -18532-1 0  9993","MEAN_MOTION_DOT":"-0.00716607","MEAN_MOTION_DDOT":"0.0000000000000","NORAD_CAT_ID":"51785","OBJECT_ID":"2022-017T","REV_AT_EPOCH":"1230","DECAY_DATE":null,"COUNTRY_CODE":"US"},{"REV_AT_EPOCH":"1219","COUNTRY_CODE":"US","DECAY_DATE":null,"ARG_OF_PERICENTER":"39.0783","PERIAPSIS":"535.168","MEAN_ELEMENT_THEORY":"SGP4","APOAPSIS":"537.787","TIME_SYSTEM":"UTC","MEAN_MOTION_DDOT":"0.0000000000000","NORAD_CAT_ID":"51786","MEAN_MOTION_DOT":"-0.00719933","OBJECT_ID":"2022-017U","TLE_LINE1":"1 51786U 22017U   22126.91667824 -.00719933  00000-0 -47187-1 0  9997","BSTAR":"-0.04718700000000","RA_OF_ASC_NODE":"166.4088","LAUNCH_DATE":"2022-02-25","CLASSIFICATION_TYPE":"U","RCS_SIZE":"LARGE","OBJECT_NAME":"STARLINK-3638","EPHEMERIS_TYPE":"0","PERIOD":"95.370","INCLINATION":"53.2174","CENTER_NAME":"EARTH","MEAN_MOTION":"15.09909662","SEMIMAJOR_AXIS":"6914.613","GP_ID":"202875557","ECCENTRICITY":"0.00018940","OBJECT_TYPE":"PAYLOAD","MEAN_ANOMALY":"100.6317","FILE":"3432684","SITE":"AFWTR","ELEMENT_SET_NO":"999","EPOCH":"2022-05-06T22:00:00.999936","TLE_LINE2":"2 51786  53.2174 166.4088 0001894  39.0783 100.6317 15.09909662 12194","REF_FRAME":"TEME"},{"FILE":"3432208","REF_FRAME":"TEME","ELEMENT_SET_NO":"999","SITE":"AFWTR","EPOCH":"2022-05-06T14:00:01.000224","TLE_LINE2":"2 51787  53.2173 167.9083 0001763  38.1467   9.9725 15.09907701  3645","GP_ID":"202864570","ECCENTRICITY":"0.00017630","SEMIMAJOR_AXIS":"6914.619","CENTER_NAME":"EARTH","MEAN_MOTION":"15.09907701","MEAN_ANOMALY":"9.9725","OBJECT_TYPE":"PAYLOAD","OBJECT_NAME":"STARLINK-3619","RCS_SIZE":"LARGE","CLASSIFICATION_TYPE":"U","RA_OF_ASC_NODE":"167.9083","LAUNCH_DATE":"2022-02-25","BSTAR":"-0.04708400000000","INCLINATION":"53.2173","EPHEMERIS_TYPE":"0","PERIOD":"95.370","COUNTRY_CODE":"US","DECAY_DATE":null,"REV_AT_EPOCH":"364","MEAN_MOTION_DOT":"-0.00718418","MEAN_MOTION_DDOT":"0.0000000000000","NORAD_CAT_ID":"51787","OBJECT_ID":"2022-017V","TLE_LINE1":"1 51787U 22017V   22126.58334491 -.00718418  00000-0 -47084-1 0  9995","MEAN_ELEMENT_THEORY":"SGP4","TIME_SYSTEM":"UTC","APOAPSIS":"537.703","PERIAPSIS":"535.265","ARG_OF_PERICENTER":"38.1467"},{"INCLINATION":"53.2174","PERIOD":"95.346","EPHEMERIS_TYPE":"0","OBJECT_NAME":"STARLINK-3641","RCS_SIZE":"LARGE","CLASSIFICATION_TYPE":"U","LAUNCH_DATE":"2022-02-25","RA_OF_ASC_NODE":"166.4095","BSTAR":"-0.04664900000000","TLE_LINE1":"1 51788U 22017W   22126.91667824 -.00719355  00000-0 -46649-1 0  9999","MEAN_MOTION_DOT":"-0.00719355","MEAN_MOTION_DDOT":"0.0000000000000","OBJECT_ID":"2022-017W","NORAD_CAT_ID":"51788","TIME_SYSTEM":"UTC","APOAPSIS":"536.545","MEAN_ELEMENT_THEORY":"SGP4","PERIAPSIS":"534.070","ARG_OF_PERICENTER":"44.8604","DECAY_DATE":null,"COUNTRY_CODE":"US","REV_AT_EPOCH":"1214","REF_FRAME":"TEME","TLE_LINE2":"2 51788  53.2174 166.4095 0001790  44.8604 153.7101 15.10292954 12141","EPOCH":"2022-05-06T22:00:00.999936","ELEMENT_SET_NO":"999","SITE":"AFWTR","FILE":"3432683","MEAN_ANOMALY":"153.7101","OBJECT_TYPE":"PAYLOAD","ECCENTRICITY":"0.00017900","GP_ID":"202875540","SEMIMAJOR_AXIS":"6913.443","MEAN_MOTION":"15.10292954","CENTER_NAME":"EARTH"},{"FILE":"3432683","REF_FRAME":"TEME","TLE_LINE2":"2 51789  53.2174 166.4084 0001735  43.6943  76.3186 15.09782144 12159","EPOCH":"2022-05-06T22:00:00.999936","ELEMENT_SET_NO":"999","SITE":"AFWTR","MEAN_MOTION":"15.09782144","CENTER_NAME":"EARTH","ECCENTRICITY":"0.00017350","GP_ID":"202875532","SEMIMAJOR_AXIS":"6915.002","OBJECT_TYPE":"PAYLOAD","MEAN_ANOMALY":"76.3186","LAUNCH_DATE":"2022-02-25","RA_OF_ASC_NODE":"166.4084","BSTAR":"-0.04740300000000","OBJECT_NAME":"STARLINK-3639","CLASSIFICATION_TYPE":"U","RCS_SIZE":"LARGE","INCLINATION":"53.2174","PERIOD":"95.378","EPHEMERIS_TYPE":"0","REV_AT_EPOCH":"1215","DECAY_DATE":null,"COUNTRY_CODE":"US","PERIAPSIS":"535.667","ARG_OF_PERICENTER":"43.6943","TLE_LINE1":"1 51789U 22017X   22126.91667824 -.00720613  00000-0 -47403-1 0  9998","OBJECT_ID":"2022-017X","MEAN_MOTION_DDOT":"0.0000000000000","MEAN_MOTION_DOT":"-0.00720613","NORAD_CAT_ID":"51789","TIME_SYSTEM":"UTC","APOAPSIS":"538.067","MEAN_ELEMENT_THEORY":"SGP4"},{"CENTER_NAME":"EARTH","MEAN_MOTION":"15.10420741","GP_ID":"202875642","ECCENTRICITY":"0.00016930","SEMIMAJOR_AXIS":"6913.053","OBJECT_TYPE":"PAYLOAD","MEAN_ANOMALY":"168.2848","FILE":"3432683","REF_FRAME":"TEME","ELEMENT_SET_NO":"999","SITE":"AFWTR","EPOCH":"2022-05-06T22:00:00.999936","TLE_LINE2":"2 51790  53.2174 166.4095 0001693  49.8291 168.2848 15.10420741 12194","REV_AT_EPOCH":"1219","COUNTRY_CODE":"US","DECAY_DATE":null,"PERIAPSIS":"533.748","ARG_OF_PERICENTER":"49.8291","MEAN_MOTION_DOT":"-0.00719187","MEAN_MOTION_DDOT":"0.0000000000000","OBJECT_ID":"2022-017Y","NORAD_CAT_ID":"51790","TLE_LINE1":"1 51790U 22017Y   22126.91667824 -.00719187  00000-0 -46473-1 0  9990","MEAN_ELEMENT_THEORY":"SGP4","TIME_SYSTEM":"UTC","APOAPSIS":"536.088","RA_OF_ASC_NODE":"166.4095","LAUNCH_DATE":"2022-02-25","BSTAR":"-0.04647300000000","OBJECT_NAME":"STARLINK-3631","RCS_SIZE":"LARGE","CLASSIFICATION_TYPE":"U","INCLINATION":"53.2174","EPHEMERIS_TYPE":"0","PERIOD":"95.338"},{"TIME_SYSTEM":"UTC","APOAPSIS":"535.952","MEAN_ELEMENT_THEORY":"SGP4","TLE_LINE1":"1 51791U 22017Z   22126.58334491 -.00716117  00000-0 -46098-1 0  9998","NORAD_CAT_ID":"51791","MEAN_MOTION_DDOT":"0.0000000000000","MEAN_MOTION_DOT":"-0.00716117","OBJECT_ID":"2022-017Z","ARG_OF_PERICENTER":"35.8647","PERIAPSIS":"533.125","DECAY_DATE":null,"COUNTRY_CODE":"US","REV_AT_EPOCH":"365","PERIOD":"95.330","EPHEMERIS_TYPE":"0","INCLINATION":"53.2173","CLASSIFICATION_TYPE":"U","RCS_SIZE":"LARGE","OBJECT_NAME":"STARLINK-3602","BSTAR":"-0.04609800000000","LAUNCH_DATE":"2022-02-25","RA_OF_ASC_NODE":"167.9105","MEAN_ANOMALY":"110.1652","OBJECT_TYPE":"PAYLOAD","SEMIMAJOR_AXIS":"6912.673","ECCENTRICITY":"0.00020450","GP_ID":"202864225","MEAN_MOTION":"15.10545204","CENTER_NAME":"EARTH","TLE_LINE2":"2 51791  53.2173 167.9105 0002045  35.8647 110.1652 15.10545204  3656","EPOCH":"2022-05-06T14:00:01.000224","SITE":"AFWTR","ELEMENT_SET_NO":"999","REF_FRAME":"TEME","FILE":"3432208"}];
